SL-8 R/B                
1 21088U 91006B   26113.07104906  .00000142  00000+0  12778-3 0  9999
2 21088  82.9402 137.0412 0020920 270.8793 116.6915 13.77503458770188
OKEAN-3                 
1 21397U 91039A   26112.89477604  .00001926  00000+0  13342-3 0  9994
2 21397  82.5130 293.9964 0014230 173.3327 186.8092 15.05036332871683
COSMOS 2151             
1 21422U 91042A   26113.23852470  .00001096  00000+0  85318-4 0  9995
2 21422  82.4985  40.6962 0010596 269.7395  90.2614 15.00284793869877
SL-14 R/B               
1 21423U 91042B   26113.12155990  .00000246  00000+0  27973-4 0  9996
2 21423  82.4949 178.5316 0018612  95.0990 265.2349 14.81868429859656
ERS-1                   
1 21574U 91050A   26113.04479100  .00000207  00000+0  80893-4 0  9992
2 21574  98.7838 132.3878 0033050  71.6045 288.8731 14.39481197822118
ARIANE 40 R/B           
1 21610U 91050F   26113.12898834  .00000170  00000+0  63218-4 0  9992
2 21610  98.1926 163.6778 0001929 315.8911  44.2126 14.42923312825403
INTERCOSMOS 25          
1 21819U 91086A   26113.14661526  .00000565  00000+0  10661-3 0  9991
2 21819  82.5991 283.1197 1485746  21.1223 344.5112 12.12125706502075
SL-8 R/B                
1 21876U 92008B   26113.29046409  .00000044  00000+0  29265-4 0  9995
2 21876  82.9275 234.5986 0034760  12.3864  14.7091 13.75970342715556
SL-8 R/B                
1 21938U 92020B   26113.13741583 -.00000040  00000+0 -57473-4 0  9996
2 21938  82.9269 120.7502 0029218 170.9137 257.8510 13.75548781707245
USA 81                  
1 21949U 92023A   26113.01823340  .00000132  00000+0  41641-4 0  9990
2 21949  85.0035 105.8509 0001268  99.1209 261.0127 14.32381525101132
COSMOS 2219             
1 22219U 92076A   26112.87380051  .00000343  00000+0  20442-3 0  9998
2 22219  71.0590 285.7028 0016995 137.3017 222.9430 14.14093399724620
SL-16 R/B               
1 22220U 92076B   26113.32336387 -.00000229  00000+0 -90344-4 0  9998
2 22220  70.9982  94.3530 0011929  16.6488  84.6583 14.16866134728151
COSMOS 2221             
1 22236U 92080A   26112.37266079  .00001402  00000+0  12132-3 0  9994
2 22236  82.5041 237.2267 0015254  50.3297 309.9268 14.96377068787324
SL-16 R/B               
1 22285U 92093B   26112.83753948  .00000281  00000+0  16815-3 0  9995
2 22285  71.0204 271.5851 0006202 248.5758 111.4704 14.15455432719406
COSMOS 2228             
1 22286U 92094A   26113.22833305  .00001414  00000+0  11897-3 0  9991
2 22286  82.5205 194.6719 0018867 148.4566 211.7792 14.97400562782728
SL-16 R/B               
1 22566U 93016B   26113.02374670 -.00000291  00000+0 -12498-3 0  9992
2 22566  71.0039 122.0693 0012623 258.3368 101.6338 14.15310578708445
COSMOS 2242             
1 22626U 93024A   26113.29693244  .00001411  00000+0  12086-3 0  9994
2 22626  82.5204 224.0431 0017091 151.3092 208.9075 14.96734298787068
