[{"OBJECT_NAME":"SL-8 R/B","OBJECT_ID":"1991-006B","EPOCH":"2026-04-23T01:42:18.638784","MEAN_MOTION":13.77503458,"ECCENTRICITY":0.002092,"INCLINATION":82.9402,"RA_OF_ASC_NODE":137.0412,"ARG_OF_PERICENTER":270.8793,"MEAN_ANOMALY":116.6915,"EPHEMERIS_TYPE":0,"CLASSIFICATION_TYPE":"U","NORAD_CAT_ID":21088,"ELEMENT_SET_NO":999,"REV_AT_EPOCH":77018,"BSTAR":0.00012778115,"MEAN_MOTION_DOT":1.42e-6,"MEAN_MOTION_DDOT":0},{"OBJECT_NAME":"OKEAN-3","OBJECT_ID":"1991-039A","EPOCH":"2026-04-22T21:28:28.649856","MEAN_MOTION":15.05036332,"ECCENTRICITY":0.001423,"INCLINATION":82.513,"RA_OF_ASC_NODE":293.9964,"ARG_OF_PERICENTER":173.3327,"MEAN_ANOMALY":186.8092,"EPHEMERIS_TYPE":0,"CLASSIFICATION_TYPE":"U","NORAD_CAT_ID":21397,"ELEMENT_SET_NO":999,"REV_AT_EPOCH":87168,"BSTAR":0.00013342,"MEAN_MOTION_DOT":1.926e-5,"MEAN_MOTION_DDOT":0},{"OBJECT_NAME":"COSMOS 2151","OBJECT_ID":"1991-042A","EPOCH":"2026-04-23T05:43:28.534080","MEAN_MOTION":15.00284793,"ECCENTRICITY":0.00105964,"INCLINATION":82.4985,"RA_OF_ASC_NODE":40.6962,"ARG_OF_PERICENTER":269.7395,"MEAN_ANOMALY":90.2614,"EPHEMERIS_TYPE":0,"CLASSIFICATION_TYPE":"U","NORAD_CAT_ID":21422,"ELEMENT_SET_NO":999,"REV_AT_EPOCH":86987,"BSTAR":8.531783e-5,"MEAN_MOTION_DOT":1.096e-5,"MEAN_MOTION_DDOT":0},{"OBJECT_NAME":"SL-14 R/B","OBJECT_ID":"1991-042B","EPOCH":"2026-04-23T02:55:02.775360","MEAN_MOTION":14.81868429,"ECCENTRICITY":0.00186127,"INCLINATION":82.4949,"RA_OF_ASC_NODE":178.5316,"ARG_OF_PERICENTER":95.099,"MEAN_ANOMALY":265.2349,"EPHEMERIS_TYPE":0,"CLASSIFICATION_TYPE":"U","NORAD_CAT_ID":21423,"ELEMENT_SET_NO":999,"REV_AT_EPOCH":85965,"BSTAR":2.7973224e-5,"MEAN_MOTION_DOT":2.46e-6,"MEAN_MOTION_DDOT":0},{"OBJECT_NAME":"ERS-1","OBJECT_ID":"1991-050A","EPOCH":"2026-04-23T01:04:29.942400","MEAN_MOTION":14.39481197,"ECCENTRICITY":0.00330506,"INCLINATION":98.7838,"RA_OF_ASC_NODE":132.3878,"ARG_OF_PERICENTER":71.6045,"MEAN_ANOMALY":288.8731,"EPHEMERIS_TYPE":0,"CLASSIFICATION_TYPE":"U","NORAD_CAT_ID":21574,"ELEMENT_SET_NO":999,"REV_AT_EPOCH":82211,"BSTAR":8.0893407e-5,"MEAN_MOTION_DOT":2.07e-6,"MEAN_MOTION_DDOT":0},{"OBJECT_NAME":"ARIANE 40 R/B","OBJECT_ID":"1991-050F","EPOCH":"2026-04-23T03:05:44.592576","MEAN_MOTION":14.42923312,"ECCENTRICITY":0.00019293,"INCLINATION":98.1926,"RA_OF_ASC_NODE":163.6778,"ARG_OF_PERICENTER":315.8911,"MEAN_ANOMALY":44.2126,"EPHEMERIS_TYPE":0,"CLASSIFICATION_TYPE":"U","NORAD_CAT_ID":21610,"ELEMENT_SET_NO":999,"REV_AT_EPOCH":82540,"BSTAR":6.3218249e-5,"MEAN_MOTION_DOT":1.7e-6,"MEAN_MOTION_DDOT":0},{"OBJECT_NAME":"INTERCOSMOS 25","OBJECT_ID":"1991-086A","EPOCH":"2026-04-23T03:31:07.558464","MEAN_MOTION":12.12125706,"ECCENTRICITY":0.14857462,"INCLINATION":82.5991,"RA_OF_ASC_NODE":283.1197,"ARG_OF_PERICENTER":21.1223,"MEAN_ANOMALY":344.5112,"EPHEMERIS_TYPE":0,"CLASSIFICATION_TYPE":"U","NORAD_CAT_ID":21819,"ELEMENT_SET_NO":999,"REV_AT_EPOCH":50207,"BSTAR":0.00010661457,"MEAN_MOTION_DOT":5.65e-6,"MEAN_MOTION_DDOT":0},{"OBJECT_NAME":"SL-8 R/B","OBJECT_ID":"1992-008B","EPOCH":"2026-04-23T06:58:16.097376","MEAN_MOTION":13.75970342,"ECCENTRICITY":0.00347605,"INCLINATION":82.9275,"RA_OF_ASC_NODE":234.5986,"ARG_OF_PERICENTER":12.3864,"MEAN_ANOMALY":14.7091,"EPHEMERIS_TYPE":0,"CLASSIFICATION_TYPE":"U","NORAD_CAT_ID":21876,"ELEMENT_SET_NO":999,"REV_AT_EPOCH":71555,"BSTAR":2.9264958e-5,"MEAN_MOTION_DOT":4.4e-7,"MEAN_MOTION_DDOT":0},{"OBJECT_NAME":"SL-8 R/B","OBJECT_ID":"1992-020B","EPOCH":"2026-04-23T03:17:52.727712","MEAN_MOTION":13.75548781,"ECCENTRICITY":0.00292189,"INCLINATION":82.9269,"RA_OF_ASC_NODE":120.7502,"ARG_OF_PERICENTER":170.9137,"MEAN_ANOMALY":257.851,"EPHEMERIS_TYPE":0,"CLASSIFICATION_TYPE":"U","NORAD_CAT_ID":21938,"ELEMENT_SET_NO":999,"REV_AT_EPOCH":70724,"BSTAR":-5.7473317e-5,"MEAN_MOTION_DOT":-4.0e-7,"MEAN_MOTION_DDOT":0},{"OBJECT_NAME":"USA 81","OBJECT_ID":"1992-023A","EPOCH":"2026-04-23T00:26:15.365760","MEAN_MOTION":14.32381525,"ECCENTRICITY":0.00012684,"INCLINATION":85.0035,"RA_OF_ASC_NODE":105.8509,"ARG_OF_PERICENTER":99.1209,"MEAN_ANOMALY":261.0127,"EPHEMERIS_TYPE":0,"CLASSIFICATION_TYPE":"U","NORAD_CAT_ID":21949,"ELEMENT_SET_NO":999,"REV_AT_EPOCH":10113,"BSTAR":4.164093e-5,"MEAN_MOTION_DOT":1.32e-6,"MEAN_MOTION_DDOT":0},{"OBJECT_NAME":"COSMOS 2219","OBJECT_ID":"1992-076A","EPOCH":"2026-04-22T20:58:16.364064","MEAN_MOTION":14.14093399,"ECCENTRICITY":0.0016995,"INCLINATION":71.059,"RA_OF_ASC_NODE":285.7028,"ARG_OF_PERICENTER":137.3017,"MEAN_ANOMALY":222.943,"EPHEMERIS_TYPE":0,"CLASSIFICATION_TYPE":"U","NORAD_CAT_ID":22219,"ELEMENT_SET_NO":999,"REV_AT_EPOCH":72462,"BSTAR":0.00020442,"MEAN_MOTION_DOT":3.43e-6,"MEAN_MOTION_DDOT":0},{"OBJECT_NAME":"SL-16 R/B","OBJECT_ID":"1992-076B","EPOCH":"2026-04-23T07:45:38.638368","MEAN_MOTION":14.16866134,"ECCENTRICITY":0.00119293,"INCLINATION":70.9982,"RA_OF_ASC_NODE":94.353,"ARG_OF_PERICENTER":16.6488,"MEAN_ANOMALY":84.6583,"EPHEMERIS_TYPE":0,"CLASSIFICATION_TYPE":"U","NORAD_CAT_ID":22220,"ELEMENT_SET_NO":999,"REV_AT_EPOCH":72815,"BSTAR":-9.0344421e-5,"MEAN_MOTION_DOT":-2.29e-6,"MEAN_MOTION_DDOT":0},{"OBJECT_NAME":"COSMOS 2221","OBJECT_ID":"1992-080A","EPOCH":"2026-04-22T08:56:37.892256","MEAN_MOTION":14.96377068,"ECCENTRICITY":0.00152548,"INCLINATION":82.5041,"RA_OF_ASC_NODE":237.2267,"ARG_OF_PERICENTER":50.3297,"MEAN_ANOMALY":309.9268,"EPHEMERIS_TYPE":0,"CLASSIFICATION_TYPE":"U","NORAD_CAT_ID":22236,"ELEMENT_SET_NO":999,"REV_AT_EPOCH":78732,"BSTAR":0.00012131579,"MEAN_MOTION_DOT":1.402e-5,"MEAN_MOTION_DDOT":0},{"OBJECT_NAME":"SL-16 R/B","OBJECT_ID":"1992-093B","EPOCH":"2026-04-22T20:06:03.411072","MEAN_MOTION":14.15455432,"ECCENTRICITY":0.00062021,"INCLINATION":71.0204,"RA_OF_ASC_NODE":271.5851,"ARG_OF_PERICENTER":248.5758,"MEAN_ANOMALY":111.4704,"EPHEMERIS_TYPE":0,"CLASSIFICATION_TYPE":"U","NORAD_CAT_ID":22285,"ELEMENT_SET_NO":999,"REV_AT_EPOCH":71940,"BSTAR":0.0001681488,"MEAN_MOTION_DOT":2.81e-6,"MEAN_MOTION_DDOT":0},{"OBJECT_NAME":"COSMOS 2228","OBJECT_ID":"1992-094A","EPOCH":"2026-04-23T05:28:47.975520","MEAN_MOTION":14.97400562,"ECCENTRICITY":0.00188677,"INCLINATION":82.5205,"RA_OF_ASC_NODE":194.6719,"ARG_OF_PERICENTER":148.4566,"MEAN_ANOMALY":211.7792,"EPHEMERIS_TYPE":0,"CLASSIFICATION_TYPE":"U","NORAD_CAT_ID":22286,"ELEMENT_SET_NO":999,"REV_AT_EPOCH":78272,"BSTAR":0.00011897484,"MEAN_MOTION_DOT":1.414e-5,"MEAN_MOTION_DDOT":0},{"OBJECT_NAME":"SL-16 R/B","OBJECT_ID":"1993-016B","EPOCH":"2026-04-23T00:34:11.714880","MEAN_MOTION":14.15310578,"ECCENTRICITY":0.00126231,"INCLINATION":71.0039,"RA_OF_ASC_NODE":122.0693,"ARG_OF_PERICENTER":258.3368,"MEAN_ANOMALY":101.6338,"EPHEMERIS_TYPE":0,"CLASSIFICATION_TYPE":"U","NORAD_CAT_ID":22566,"ELEMENT_SET_NO":999,"REV_AT_EPOCH":70844,"BSTAR":-0.0001249782,"MEAN_MOTION_DOT":-2.91e-6,"MEAN_MOTION_DDOT":0},{"OBJECT_NAME":"COSMOS 2242","OBJECT_ID":"1993-024A","EPOCH":"2026-04-23T07:07:34.962816","MEAN_MOTION":14.96734298,"ECCENTRICITY":0.00170918,"INCLINATION":82.5204,"RA_OF_ASC_NODE":224.0431,"ARG_OF_PERICENTER":151.3092,"MEAN_ANOMALY":208.9075,"EPHEMERIS_TYPE":0,"CLASSIFICATION_TYPE":"U","NORAD_CAT_ID":22626,"ELEMENT_SET_NO":999,"REV_AT_EPOCH":78706,"BSTAR":0.00012086194,"MEAN_MOTION_DOT":1.411e-5,"MEAN_MOTION_DDOT":0}]
